#aV2013  4  6  0  0  0.00000000     288 DD+AD WGS84 FIT  NGA
## 1734 518400.00000000   300.00000000 56388 0.0000000000000
+   30     1  2  3  4  5  6  7  8  9 10 11 12 13 14 15 16 17
+         18 19 20 21 22 23 24 25 26 28 29 31 32  0  0  0  0
+          0  0  0  0  0  0  0  0  0  0  0  0  0  0  0  0  0
+          0  0  0  0  0  0  0  0  0  0  0  0  0  0  0  0  0
+          0  0  0  0  0  0  0  0  0  0  0  0  0  0  0  0  0
++         2  2  2  2  2  2  2  2  2  2  2  2  2  2  2  2  2
++         2  2  2  2  2  2  2  2  2  2  2  2  2  2  2  0  0
++         0  0  0  0  0  0  0  0  0  0  0  0  0  0  0  0  0
++         0  0  0  0  0  0  0  0  0  0  0  0  0  0  0  0  0
++         0  0  0  0  0  0  0  0  0  0  0  0  0  0  0  0  0
%c cc cc ccc ccc cccc cccc cccc cccc ccccc ccccc ccccc ccccc
%c cc cc ccc ccc cccc cccc cccc cccc ccccc ccccc ccccc ccccc
%f  0.0000000  0.000000000  0.00000000000  0.000000000000000
%f  0.0000000  0.000000000  0.00000000000  0.000000000000000
%i    0    0    0    0      0      0      0      0         0
%i    0    0    0    0      0      0      0      0         0
/*      NGA, ST. LOUIS,MO.                                  
/*   EPHEMERIS COMPUTED FROM  1 DAYS OF DATA
/*   EPOCHA SMOOTHER  
/* CCCCCCCCCCCCCCCCCCCCCCCCCCCCCCCCCCCCCCCCCCCCCCCCCCCCCCCCC
*  2013  4  6 20 15  0.00000000                                                 
P  1 -21661.468041 -14035.350585  -6456.156310     13.858151                    
V  1   8542.751571    739.609852 -30271.711247      0.034162                    
P  2   1353.974756  16886.275523  20754.813307    425.995235                    
V  2 -24305.916154  -8923.235231   8417.285971      0.019096                    
P  3   2272.718984 -20419.765538 -17221.499598    190.667600                    
V  3  16392.193929 -13426.023990  18862.650956      0.048922                    
P  4 -12768.462044  10866.551541  20377.035926    182.952298                    
V  4 -24130.643350 -11061.162648  -8818.203482      0.108959                    
P  5   2078.983960  26337.361310   1805.964459   -390.710727                    
V  5  -3570.769334  -1902.178473  31478.141349     -0.013646                    
P  6   9259.810228 -20795.117081 -13291.758853    284.424241                    
V  6  14995.245637  -8975.890466  24678.699431     -0.154872                    
P  7 -24910.238661  -4992.838995  -8203.095198    199.750444                    
V  7  -8686.481423  -6000.604583  29597.570634      0.043017                    
P  8 -20669.210040    938.723003 -16884.264759      5.514976                    
V  8 -18281.154173 -11025.790107  21061.003463      0.003114                    
P  9  -2059.040647  15155.606263 -22248.069062    232.215384                    
V  9 -24933.659549 -10077.666314  -4734.386018      0.026613                    
P 10  -9691.123317  18355.863878  16040.301598    -75.840231                    
V 10  -4811.960471 -20723.703663  20850.366516     -0.012089                    
P 11 -17873.511242 -13822.445499 -14601.028733   -369.781187                    
V 11  18197.634125  -1379.354803 -21338.339216     -0.036267                    
P 12  11147.554361  19828.518251  13856.471753    126.959514                    
V 12    167.612254  17582.427736 -25038.774806      0.020646                    
P 13 -21355.930810    772.511303  15707.764631    131.031469                    
V 13  16382.903415 -11764.512221  22528.983444     -0.035364                    
P 14  21774.722888 -15048.429647   1025.769783    221.085561                    
V 14   2264.266909   1509.147572 -32115.863159      0.000250                    
P 15   8510.123115  13198.363032 -21438.114182   -114.288572                    
V 15 -21446.686927  16800.911739   2086.805918     -0.014103                    
P 16   -265.558840 -26239.920512   2617.032813   -252.588732                    
V 16   2595.034618   3175.921685  32268.027272      0.000712                    
P 17 -21020.585948  15967.875992   1520.414768     32.567761                    
V 17  -3033.306113  -1405.076495 -31919.500030     -0.040394                    
P 18  15450.421124  -3066.950271 -20975.321724    247.598751                    
V 18   3774.165889  27458.920791  -1563.896455      0.018740                    
P 19  -4042.348687 -15130.681701 -21482.352077   -362.662141                    
V 19  23384.106835 -13792.980657   5746.847188     -0.031443                    
P 20 -14301.471620 -16582.945021  14905.512435     91.711013                    
V 20   -722.966282 -19475.684047 -22028.867020      0.018491                    
P 21  24293.691960   1644.628782 -10664.625644   -290.423905                    
V 21  11969.902624   8266.876453  26594.096117     -0.021863                    
P 22  11728.763886 -15389.115970 -17946.476437    163.516511                    
V 22   5003.753318  22906.030715 -16341.929129      0.012706                    
P 23 -15857.172100  -6291.610531  20513.356352     97.718045                    
V 23  20300.426186 -15983.769293  10437.988192     -0.036353                    
P 24  19363.234216  15375.524176  -9764.507875     -4.036457                    
V 24 -12408.818291  -2367.919205 -28321.938266     -0.007193                    
P 25  14998.254822   8613.239487  20140.872938     84.848257                    
V 25   2460.282207  25507.744469 -12617.652667      0.036458                    
P 26  -5460.976977  18352.221736 -18897.868082    -37.331867                    
V 26 -19960.292444  10994.323312  17365.531759      0.149569                    
P 28 -12528.665004  11224.573806 -19924.849514    247.621470                    
V 28  -2921.060866 -26461.952711 -12877.218899      0.032832                    
P 29  21218.246808  -1149.023453  15962.068148    423.949250                    
V 29 -15597.848190  12926.354684  21783.613933      0.035075                    
P 31  10185.016433 -11485.390047  21878.897270    309.599056                    
V 31  24781.671500  11389.968405  -5328.041280      0.015511                    
P 32  -7984.283884 -23680.058179   9865.529657   -548.587230                    
V 32   1913.866106 -12264.565107 -27776.312055     -0.025824                    
EOF
